ONEWEB-0424             
1 50497U 21132AE  23331.60303419 -.00000256  00000+0 -68283-3 0  9996
2 50497  87.9214 160.9840 0001952 101.4702 258.6649 13.18690820 98733
ONEWEB-0426             
1 50498U 21132AF  23331.56511351  .00000091  00000+0  19830-3 0  9997
2 50498  87.9208 161.0159 0002182  76.8975 283.2401 13.18685658 98671
ONEWEB-0427             
1 50499U 21132AG  23331.52505285  .00000062  00000+0  12353-3 0  9994
2 50499  87.9211 160.9980 0001869  86.5606 273.5740 13.18685098 98694
ONEWEB-0429             
1 50500U 21132AH  23331.58828798  .00000076  00000+0  16029-3 0  9999
2 50500  87.9196 160.9873 0001485  87.3449 272.7853 13.18690587 98671
ONEWEB-0430             
1 50501U 21132AJ  23331.57776487  .00000396  00000+0  97261-3 0  9998
2 50501  87.9212 160.9936 0001642  93.8283 266.3037 13.18687887 98711
ONEWEB-0432             
1 50502U 21132AK  23331.60936280 -.00000016  00000+0 -74414-4 0  9999
2 50502  87.9212 160.9825 0001563  90.0908 270.0403 13.18688419 98670
ONEWEB-0440             
1 50503U 21132AL  23331.59670521 -.00000728  00000+0 -18801-2 0  9997
2 50503  87.9137 160.9752 0001449  63.1985 296.9296 13.18688950 98661
ONEWEB-0450             
1 50504U 21132AM  23331.59040502  .00000046  00000+0  84825-4 0  9990
2 50504  87.9183 161.0074 0001188  94.8647 265.2621 13.18688282 98690
